CCSDS_OMM_VERS,COMMENT,CREATION_DATE,ORIGINATOR,OBJECT_NAME,OBJECT_ID,CENTER_NAME,REF_FRAME,TIME_SYSTEM,MEAN_ELEMENT_THEORY,EPOCH,MEAN_MOTION,ECCENTRICITY,INCLINATION,RA_OF_ASC_NODE,ARG_OF_PERICENTER,MEAN_ANOMALY,EPHEMERIS_TYPE,CLASSIFICATION_TYPE,NORAD_CAT_ID,ELEMENT_SET_NO,REV_AT_EPOCH,BSTAR,MEAN_MOTION_DOT,MEAN_MOTION_DDOT,SEMIMAJOR_AXIS,PERIOD,APOAPSIS,PERIAPSIS,OBJECT_TYPE,RCS_SIZE,COUNTRY_CODE,LAUNCH_DATE,SITE,DECAY_DATE,FILE,GP_ID,TLE_LINE0,TLE_LINE1,TLE_LINE2
"2.0","GENERATED VIA SPACE-TRACK.ORG API","2023-01-03T02:40:54","18 SPCS","ARIANE 1 DEB","1985-056C","EARTH","TEME","UTC","SGP4","2023-01-02T13:49:26.618592","3.09481816","0.65579880","8.2449","260.5193","82.4448","342.3133","0","U","17255","999","30558","0.00476650000000","0.00001618","0.0000000000000","19890.472","465.294","26556.484","468.189","DEBRIS","LARGE","FR","1985-07-02","FRGUI","","3729873","222047003","0 ARIANE 1 DEB","1 17255U 85056C   23002.57600253  .00001618  00000-0  47665-2 0  9995","2 17255   8.2449 260.5193 6557988  82.4448 342.3133  3.09481816305583"
"2.0","GENERATED VIA SPACE-TRACK.ORG API","2023-01-02T17:42:09","18 SPCS","ARIANE 1 DEB","1985-056C","EARTH","TEME","UTC","SGP4","2023-01-01T22:19:11.647488","3.09479854","0.65579680","8.2450","260.8987","81.7104","342.5787","0","U","17255","999","30556","0.00517170000000","0.00001764","0.0000000000000","19890.556","465.297","26556.584","468.258","DEBRIS","LARGE","FR","1985-07-02","FRGUI","","3729583","222013959","0 ARIANE 1 DEB","1 17255U 85056C   23001.92999592  .00001764  00000-0  51717-2 0  9995","2 17255   8.2450 260.8987 6557968  81.7104 342.5787  3.09479854305562"
"2.0","GENERATED VIA SPACE-TRACK.ORG API","2023-01-02T22:46:14","18 SPCS","ARIANE 1 DEB","1985-056C","EARTH","TEME","UTC","SGP4","2023-01-02T13:49:26.618592","3.09481816","0.65579880","8.2449","260.5193","82.4448","342.3133","0","U","17255","999","30568","0.00476650000000","0.00001618","0.0000000000000","19890.472","465.294","26556.484","468.189","DEBRIS","LARGE","FR","1985-07-02","FRGUI","","3729635","222035659","0 ARIANE 1 DEB","1 17255U 85056C   23002.57600253  .00001618  00000-0  47665-2 0  9995","2 17255   8.2449 260.5193 6557988  82.4448 342.3133  3.09481816305684"
"2.0","GENERATED VIA SPACE-TRACK.ORG API","2023-01-01T17:55:23","18 SPCS","ARIANE 1 DEB","1985-056D","EARTH","TEME","UTC","SGP4","2023-01-01T13:06:40.108320","3.41824301","0.63919160","7.8762","160.2925","154.8260","259.4170","0","U","17325","999","32602","0.00258610000000","0.00004184","0.0000000000000","18615.150","421.269","24135.663","338.368","DEBRIS","LARGE","FR","1985-07-02","FRGUI","","3728759","221914284","0 ARIANE 1 DEB","1 17325U 85056D   23001.54629755  .00004184  00000-0  25861-2 0  9992","2 17325   7.8762 160.2925 6391916 154.8260 259.4170  3.41824301326023"
"2.0","GENERATED VIA SPACE-TRACK.ORG API","2023-01-02T02:38:49","18 SPCS","ARIANE 1 DEB","1985-056D","EARTH","TEME","UTC","SGP4","2023-01-01T13:06:39.893184","3.41824232","0.63919490","7.8764","160.2919","154.8268","259.4137","0","U","17325","999","32602","0.00253420000000","0.00004103","0.0000000000000","18615.153","421.269","24135.729","338.307","DEBRIS","LARGE","FR","1985-07-02","FRGUI","","3728952","221970908","0 ARIANE 1 DEB","1 17325U 85056D   23001.54629506  .00004103  00000-0  25342-2 0  9991","2 17325   7.8764 160.2919 6391949 154.8268 259.4137  3.41824232326028"
"2.0","GENERATED VIA SPACE-TRACK.ORG API","2023-01-02T07:56:13","18 SPCS","ARIANE 1 DEB","1985-056D","EARTH","TEME","UTC","SGP4","2023-01-01T20:06:46.225728","3.41826627","0.63919230","7.8771","160.0943","155.2137","258.4193","0","U","17325","999","32602","0.00257990000000","0.00004158","0.0000000000000","18615.066","421.266","24135.538","338.324","DEBRIS","LARGE","FR","1985-07-02","FRGUI","","3729210","221999176","0 ARIANE 1 DEB","1 17325U 85056D   23001.83803502  .00004158  00000-0  25799-2 0  9999","2 17325   7.8771 160.0943 6391923 155.2137 258.4193  3.41826627326024"
"2.0","GENERATED VIA SPACE-TRACK.ORG API","2023-01-03T02:40:54","18 SPCS","ARIANE 1 DEB","1985-056D","EARTH","TEME","UTC","SGP4","2023-01-02T10:06:56.753280","3.41831392","0.63919050","7.8784","159.7004","155.9856","256.4082","0","U","17325","999","32605","0.00256560000000","0.00004096","0.0000000000000","18614.893","421.260","24135.221","338.295","DEBRIS","LARGE","FR","1985-07-02","FRGUI","","3729873","222046754","0 ARIANE 1 DEB","1 17325U 85056D   23002.42149020  .00004096  00000-0  25656-2 0  9996","2 17325   7.8784 159.7004 6391905 155.9856 256.4082  3.41831392326059"
"2.0","GENERATED VIA SPACE-TRACK.ORG API","2023-01-02T17:42:09","18 SPCS","ARIANE 1 DEB","1985-056D","EARTH","TEME","UTC","SGP4","2023-01-02T10:06:56.538144","3.41831501","0.63918980","7.8784","159.6999","155.9871","256.4052","0","U","17325","999","32605","0.00261200000000","0.00004171","0.0000000000000","18614.889","421.260","24135.201","338.307","DEBRIS","LARGE","FR","1985-07-02","FRGUI","","3729583","222013209","0 ARIANE 1 DEB","1 17325U 85056D   23002.42148771  .00004171  00000-0  26120-2 0  9999","2 17325   7.8784 159.6999 6391898 155.9871 256.4052  3.41831501326058"
"2.0","GENERATED VIA SPACE-TRACK.ORG API","2023-01-02T02:38:49","18 SPCS","MOLNIYA 3-31","1987-008A","EARTH","TEME","UTC","SGP4","2023-01-01T07:39:23.493024","2.00681163","0.71369470","63.6676","104.5044","253.2695","23.0953","0","U","17328","999","25983","0.00000000000000","-0.00000132","0.0000000000000","26549.974","717.556","39120.415","1223.263","PAYLOAD","LARGE","CIS","1987-01-22","PKMTR","","3728952","221971658","0 MOLNIYA 3-31","1 17328U 87008A   23001.31902191 -.00000132  00000-0  00000-0 0  9993","2 17328  63.6676 104.5044 7136947 253.2695  23.0953  2.00681163259830"
"2.0","GENERATED VIA SPACE-TRACK.ORG API","2023-01-02T14:56:14","18 SPCS","MOLNIYA 3-31","1987-008A","EARTH","TEME","UTC","SGP4","2023-01-01T19:36:56.138688","2.00681087","0.71372610","63.6672","104.4405","253.2681","23.0911","0","U","17328","999","25987","0.00000000000000","-0.00000150","0.0000000000000","26549.981","717.556","39121.260","1222.432","PAYLOAD","LARGE","CIS","1987-01-22","PKMTR","","3729405","222003902","0 MOLNIYA 3-31","1 17328U 87008A   23001.81731642 -.00000150  00000-0  00000+0 0  9998","2 17328  63.6672 104.4405 7137261 253.2681  23.0911  2.00681087259874"
"2.0","GENERATED VIA SPACE-TRACK.ORG API","2023-01-02T17:42:09","18 SPCS","MOLNIYA 3-31","1987-008A","EARTH","TEME","UTC","SGP4","2023-01-01T19:36:56.138688","2.00681087","0.71372610","63.6672","104.4405","253.2681","23.0911","0","U","17328","999","25984","0.00000000000000","-0.00000150","0.0000000000000","26549.981","717.556","39121.260","1222.432","PAYLOAD","LARGE","CIS","1987-01-22","PKMTR","","3729583","222013961","0 MOLNIYA 3-31","1 17328U 87008A   23001.81731642 -.00000150  00000-0  00000-0 0  9999","2 17328  63.6672 104.4405 7137261 253.2681  23.0911  2.00681087259841"
"2.0","GENERATED VIA SPACE-TRACK.ORG API","2023-01-02T07:06:16","18 SPCS","SL-6 R/B(2)","1987-008D","EARTH","TEME","UTC","SGP4","2023-01-01T13:51:32.381568","1.97077874","0.66968500","63.9048","183.8335","255.9594","26.3703","0","U","17333","999","25871","0.00000000000000","0.00001104","0.0000000000000","26872.615","730.676","38490.667","2498.293","ROCKET BODY","LARGE","CIS","1987-01-22","PKMTR","","3729147","221997788","0 SL-6 R/B(2)","1 17333U 87008D   23001.57745812  .00001104  00000-0  00000+0 0  9990","2 17333  63.9048 183.8335 6696850 255.9594  26.3703  1.97077874258713"
"2.0","GENERATED VIA SPACE-TRACK.ORG API","2023-01-02T17:42:09","18 SPCS","SL-6 R/B(2)","1987-008D","EARTH","TEME","UTC","SGP4","2023-01-01T13:51:32.381568","1.97077874","0.66968500","63.9048","183.8335","255.9594","26.3703","0","U","17333","999","25873","0.00000000000000","0.00001104","0.0000000000000","26872.615","730.676","38490.667","2498.293","ROCKET BODY","LARGE","CIS","1987-01-22","PKMTR","","3729583","222013701","0 SL-6 R/B(2)","1 17333U 87008D   23001.57745812  .00001104  00000-0  00000-0 0  9991","2 17333  63.9048 183.8335 6696850 255.9594  26.3703  1.97077874258735"
"2.0","GENERATED VIA SPACE-TRACK.ORG API","2023-01-03T22:26:13","18 SPCS","TITAN 34B R/B","1987-015B","EARTH","TEME","UTC","SGP4","2023-01-02T23:48:26.471520","2.04982208","0.71957060","63.1795","275.4962","266.6628","16.6605","0","U","17507","999","2666","-0.00349930000000","0.00001267","0.0000000000000","26177.273","702.500","38635.533","962.742","ROCKET BODY","LARGE","US","1987-02-12","AFWTR","","3730739","222085228","0 TITAN 34B R/B","1 17507U 87015B   23002.99197305  .00001267  00000-0 -34993-2 0  9998","2 17507  63.1795 275.4962 7195706 266.6628  16.6605  2.04982208 26668"
"2.0","GENERATED VIA SPACE-TRACK.ORG API","2023-01-01T17:55:23","18 SPCS","TITAN 34B R/B","1987-015B","EARTH","TEME","UTC","SGP4","2023-01-01T00:58:24.961152","2.04980270","0.71966180","63.1807","275.7747","266.6590","16.6397","0","U","17507","999","2661","-0.00185140000000","0.00001091","0.0000000000000","26177.438","702.507","38638.205","960.401","ROCKET BODY","LARGE","US","1987-02-12","AFWTR","","3728759","221915301","0 TITAN 34B R/B","1 17507U 87015B   23001.04056668  .00001091  00000-0 -18514-2 0  9995","2 17507  63.1807 275.7747 7196618 266.6590  16.6397  2.04980270 26617"
"2.0","GENERATED VIA SPACE-TRACK.ORG API","2023-01-04T18:02:30","18 SPCS","TITAN 34B R/B","1987-015B","EARTH","TEME","UTC","SGP4","2023-01-02T23:48:26.471520","2.04982208","0.71957060","63.1795","275.4962","266.6628","16.6605","0","U","17507","999","2665","-0.00349930000000","0.00001267","0.0000000000000","26177.273","702.500","38635.533","962.742","ROCKET BODY","LARGE","US","1987-02-12","AFWTR","","3731823","222141128","0 TITAN 34B R/B","1 17507U 87015B   23002.99197305  .00001267  00000-0 -34993-2 0  9998","2 17507  63.1795 275.4962 7195706 266.6628  16.6605  2.04982208 26657"
